{"rounds":[{"id":15,"name":"הכנסת ה-15","date":"1999-05-17","year":1999},{"id":16,"name":"הכנסת ה-16","date":"2003-01-28","year":2003},{"id":17,"name":"הכנסת ה-17","date":"2006-03-28","year":2006},{"id":18,"name":"הכנסת ה-18","date":"2009-02-10","year":2009},{"id":19,"name":"הכנסת ה-19","date":"2013-01-22","year":2013},{"id":20,"name":"הכנסת ה-20","date":"2015-03-17","year":2015},{"id":21,"name":"הכנסת ה-21","date":"2019-04-09","year":2019},{"id":22,"name":"הכנסת ה-22","date":"2019-09-17","year":2019},{"id":23,"name":"הכנסת ה-23","date":"2020-03-02","year":2020},{"id":24,"name":"הכנסת ה-24","date":"2021-03-23","year":2021},{"id":25,"name":"הכנסת ה-25","date":"2022-11-01","year":2022}],"parties":{"מחל":{"letter":"מחל","nameHe":"הליכוד","nameEn":"Likud","color":"#1b5da5","seats":{"15":19,"16":38,"17":12,"18":27,"19":31,"20":30,"21":35,"22":32,"23":36,"24":30,"25":32},"aliasRounds":{"19":{"nameHe":"הליכוד ישראל ביתנו","nameEn":"Likud Yisrael Beiteinu"}}},"שס":{"letter":"שס","nameHe":"ש\"ס","nameEn":"Shas","color":"#0d2137","seats":{"15":17,"16":11,"17":12,"18":11,"19":11,"20":7,"21":8,"22":9,"23":9,"24":9,"25":11}},"ג":{"letter":"ג","nameHe":"יהדות התורה","nameEn":"United Torah Judaism","color":"#173f6e","seats":{"15":5,"16":5,"17":6,"18":5,"19":7,"20":6,"21":8,"22":7,"23":7,"24":7,"25":7}},"אמת":{"letter":"אמת","nameHe":"העבודה","nameEn":"Labor","color":"#e31e24","seats":{"15":26,"16":19,"17":19,"18":13,"19":15,"20":24,"21":6,"22":6,"23":7,"24":7,"25":4},"aliasRounds":{"15":{"nameHe":"ישראל אחת","nameEn":"One Israel"},"16":{"nameHe":"העבודה-מימד","nameEn":"Labor-Meimad"},"17":{"nameHe":"העבודה-מימד","nameEn":"Labor-Meimad"},"23":{"nameHe":"העבודה-גשר-מרצ","nameEn":"Labor-Gesher-Meretz"}}},"מרצ":{"letter":"מרצ","nameHe":"מרצ","nameEn":"Meretz","color":"#3db54a","seats":{"15":10,"16":6,"17":5,"18":3,"19":6,"20":5,"21":4,"22":0,"23":0,"24":6,"25":0},"aliasRounds":{"17":{"nameHe":"מרצ-יחד","nameEn":"Meretz-Yachad"}}},"ל":{"letter":"ל","nameHe":"ישראל ביתנו","nameEn":"Yisrael Beiteinu","color":"#003566","seats":{"15":4,"16":7,"17":11,"18":15,"20":6,"21":5,"22":8,"23":7,"24":7,"25":6},"aliasRounds":{"16":{"nameHe":"האיחוד הלאומי - ישראל ביתנו","nameEn":"National Union-Yisrael Beiteinu"}}},"ד":{"letter":"ד","nameHe":"בל\"ד","nameEn":"Balad","color":"#66a644","seats":{"15":2,"16":3,"17":3,"18":3,"19":3,"25":0}},"עם":{"letter":"עם","nameHe":"רע\"מ","nameEn":"Ra'am","color":"#28a745","seats":{"15":5,"16":2,"17":4,"18":4,"19":4,"24":4,"25":5},"aliasRounds":{"15":{"nameHe":"הרשימה הערבית המאוחדת","nameEn":"United Arab List"},"16":{"nameHe":"הרשימה הערבית המאוחדת","nameEn":"United Arab List"},"17":{"nameHe":"רע\"מ-תע\"ל","nameEn":"Ra'am-Ta'al"},"18":{"nameHe":"רע\"מ-תע\"ל","nameEn":"Ra'am-Ta'al"},"19":{"nameHe":"רע\"מ-תע\"ל","nameEn":"Ra'am-Ta'al"}}},"פה":{"letter":"פה","nameHe":"יש עתיד","nameEn":"Yesh Atid","color":"#52b4d9","seats":{"15":6,"19":19,"20":11,"21":0,"22":0,"23":0,"24":17,"25":24},"aliasRounds":{"15":{"nameHe":"מפלגת המרכז","nameEn":"Center Party"}}},"כף":{"letter":"כף","nameHe":"כחול לבן","nameEn":"Blue and White","color":"#00a5e5","seats":{"21":35,"22":33,"23":33,"24":8,"25":0}},"ודעם":{"letter":"ודעם","nameHe":"הרשימה המשותפת","nameEn":"Joint List","color":"#4a8c3f","seats":{"20":13,"21":0,"22":13,"23":15,"24":6,"25":0}},"ט":{"letter":"ט","nameHe":"הציונות הדתית","nameEn":"Religious Zionism","color":"#d4a843","seats":{"18":4,"20":0,"21":0,"22":0,"23":0,"24":6,"25":14},"aliasRounds":{"18":{"nameHe":"האיחוד הלאומי","nameEn":"National Union"}}},"ת":{"letter":"ת","nameHe":"תקווה חדשה","nameEn":"New Hope","color":"#0077b6","seats":{"24":6,"25":0}},"מב":{"letter":"מב","nameHe":"ימינה","nameEn":"Yamina","color":"#5c913b","seats":{"23":6,"24":7,"25":0}},"כ":{"letter":"כ","nameHe":"כולנו","nameEn":"Kulanu","color":"#e2a928","seats":{"20":10,"21":4,"22":0}},"טב":{"letter":"טב","nameHe":"הבית היהודי","nameEn":"Jewish Home","color":"#e59600","seats":{"17":9,"18":3,"19":12,"20":8,"21":0,"22":0},"aliasRounds":{"17":{"nameHe":"האיחוד הלאומי-מפד\"ל","nameEn":"National Union-NRP"}}},"נץ":{"letter":"נץ","nameHe":"איחוד מפלגות הימין","nameEn":"United Right","color":"#6e8b3d","seats":{"15":4,"21":5,"22":7},"aliasRounds":{"15":{"nameHe":"האיחוד הלאומי","nameEn":"National Union"}}},"ממ":{"letter":"ממ","nameHe":"המחנה הממלכתי","nameEn":"National Unity","color":"#003d7a","seats":{"25":12}},"אמ":{"letter":"אמ","nameHe":"המחנה הדמוקרטי","nameEn":"Democratic Camp","color":"#55b052","seats":{"22":5}},"טע":{"letter":"טע","nameHe":"חד\"ש-תע\"ל","nameEn":"Hadash-Taal","color":"#cc3333","seats":{"25":5}},"ום":{"letter":"ום","nameHe":"חד\"ש-תע\"ל","nameEn":"Hadash-Taal","color":"#cc3333","seats":{"21":6}},"דעם":{"letter":"דעם","nameHe":"רע\"מ-בל\"ד","nameEn":"Ra'am-Balad","color":"#2e7d32","seats":{"21":4}},"כן":{"letter":"כן","nameHe":"קדימה","nameEn":"Kadima","color":"#FF6D00","seats":{"17":29,"18":28,"19":6},"aliasRounds":{"19":{"nameHe":"התנועה","nameEn":"Hatnuah"}}},"ו":{"letter":"ו","nameHe":"חד\"ש","nameEn":"Hadash","color":"#d32f2f","seats":{"15":3,"16":3,"17":3,"18":4,"19":4}},"יש":{"letter":"יש","nameHe":"שינוי","nameEn":"Shinui","color":"#F9A825","seats":{"15":6,"16":15}},"ז":{"letter":"ז","nameHe":"גיל - גמלאים לישראל","nameEn":"Gil (Pensioners)","color":"#7E57C2","seats":{"17":7}},"ם":{"letter":"ם","nameHe":"המפד\"ל","nameEn":"NRP","color":"#558B2F","seats":{"15":5,"16":6}},"נ":{"letter":"נ","nameHe":"ישראל בעלייה","nameEn":"Yisrael B'Aliyah","color":"#0288D1","seats":{"15":6,"16":2}},"ב":{"letter":"ב","nameHe":"עם אחד","nameEn":"One Nation","color":"#8D6E63","seats":{"15":2,"16":3}},"קנ":{"letter":"קנ","nameHe":"קדימה","nameEn":"Kadima","color":"#FF8C00","seats":{"19":2}}},"cities":[{"code":"967","name":"אבו ג'ווייעד (שבט)","aliases":["אבו ג'ווייעד","אבו גווייעד שבט"]},{"code":"472","name":"אבו גוש","lat":31.7978,"lng":35.1091},{"code":"473","name":"אבו סנאן","lat":31.7978,"lng":35.1091},{"code":"958","name":"אבו עבדון (שבט)","aliases":["אבו עבדון","אבו עבדון שבט"]},{"code":"968","name":"אבו קורינאת (שבט)","aliases":["אבו קורינאת","אבו קורינאת שבט"]},{"code":"1342","name":"אבו קרינאת (ישוב)","aliases":["אבו קרינאת (יישוב","אבו קרינאת יישוב"],"lat":31.22,"lng":34.92},{"code":"966","name":"אבו רובייעה (שבט)","aliases":["אבו רובייעה","אבו רובייעה שבט"]},{"code":"961","name":"אבו רוקייק (שבט)","aliases":["אבו רוקייק","אבו רוקייק שבט"]},{"code":"1375","name":"אבו תלול","lat":31.32,"lng":34.83},{"code":"652","name":"אבטין"},{"code":"1275","name":"אבטליון"},{"code":"679","name":"אביאל"},{"code":"1115","name":"אביבים"},{"code":"819","name":"אביגדור"},{"code":"175","name":"אביחיל"},{"code":"2052","name":"אביטל"},{"code":"1070","name":"אביעזר"},{"code":"1220","name":"אבירים"},{"code":"182","name":"אבן יהודה","lat":32.27,"lng":34.88},{"code":"1081","name":"אבן מנחם"},{"code":"783","name":"אבן ספיר"},{"code":"400","name":"אבן שמואל","lat":31.54,"lng":34.63},{"code":"4011","name":"אבני איתן"},{"code":"3793","name":"אבני חפץ","lat":32.255,"lng":35.1933},{"code":"1311","name":"אבשלום"},{"code":"3759","name":"אדורה","lat":31.4967,"lng":35.0633},{"code":"113","name":"אדירים"},{"code":"1068","name":"אדמית"},{"code":"1123","name":"אדרת"},{"code":"446","name":"אודים"},{"code":"4010","name":"אודם","lat":33.105,"lng":35.7667},{"code":"1046","name":"אוהד"},{"code":"476","name":"אום אל-ג'נם"},{"code":"2710","name":"אום אל-פחם","aliases":["אום אלפחם"],"lat":32.5166,"lng":35.1524},{"code":"2024","name":"אום אל-קוטוף","aliases":["אום אלקוטוף"]},{"code":"1358","name":"אום בטין","lat":31.275,"lng":34.9},{"code":"1108","name":"אומן"},{"code":"680","name":"אומץ"},{"code":"31","name":"אופקים","lat":31.3139,"lng":34.6192},{"code":"1294","name":"אור הגנוז"},{"code":"67","name":"אור הנר"},{"code":"2400","name":"אור יהודה","lat":32.0293,"lng":34.8561},{"code":"1020","name":"אור עקיבא","lat":32.5077,"lng":34.9183},{"code":"780","name":"אורה"},{"code":"2012","name":"אורות"},{"code":"4013","name":"אורטל","lat":33.1017,"lng":35.715},{"code":"403","name":"אורים"},{"code":"3760","name":"אורנית","lat":32.1337,"lng":34.9636},{"code":"278","name":"אושה"},{"code":"565","name":"אזור","lat":32.0286,"lng":34.7928},{"code":"1157","name":"אחווה"},{"code":"821","name":"אחוזם"},{"code":"1330","name":"אחוזת ברק"},{"code":"785","name":"אחיהוד"},{"code":"850","name":"אחיטוב"},{"code":"804","name":"אחיסמך"},{"code":"797","name":"אחיעזר"},{"code":"965","name":"אטרש (שבט)","aliases":["אטרש","אטרש שבט"]},{"code":"338","name":"איבים","lat":31.385,"lng":34.585},{"code":"716","name":"אייל","lat":32.205,"lng":34.96},{"code":"77","name":"איילת השחר","lat":33.055,"lng":35.57},{"code":"294","name":"אילון"},{"code":"1126","name":"אילות","lat":29.515,"lng":34.935},{"code":"49","name":"אילניה"},{"code":"2600","name":"אילת","lat":29.5577,"lng":34.9519},{"code":"1336","name":"אירוס"},{"code":"3762","name":"איתמר","lat":32.0821,"lng":35.2988},{"code":"37","name":"איתן"},{"code":"478","name":"אכסאל","lat":32.6767,"lng":35.32},{"code":"1359","name":"אל סייד","lat":31.24,"lng":34.95},{"code":"1316","name":"אל-עריאן","aliases":["אלעריאן"],"lat":32.8233,"lng":35.22},{"code":"4003","name":"אל-רום","aliases":["אלרום"],"lat":33.18,"lng":35.7883},{"code":"1145","name":"אלומה"},{"code":"330","name":"אלומות"},{"code":"1182","name":"אלון הגליל"},{"code":"3579","name":"אלון מורה","lat":32.18,"lng":35.28},{"code":"3604","name":"אלון שבות","lat":31.652,"lng":35.1293},{"code":"429","name":"אלוני אבא"},{"code":"4017","name":"אלוני הבשן","lat":33.0267,"lng":35.7533},{"code":"868","name":"אלוני יצחק"},{"code":"285","name":"אלונים"},{"code":"5428","name":"אלי סיני"},{"code":"4002","name":"אלי-עד","aliases":["אליעד"],"lat":33.0267,"lng":35.7633},{"code":"1365","name":"אליאב"},{"code":"41","name":"אליכין"},{"code":"1248","name":"אליפז","lat":29.8217,"lng":35.025},{"code":"730","name":"אליפלט"},{"code":"682","name":"אליקים"},{"code":"204","name":"אלישיב"},{"code":"841","name":"אלישמע"},{"code":"1125","name":"אלמגור"},{"code":"3556","name":"אלמוג","lat":31.7983,"lng":35.4333},{"code":"1309","name":"אלעד","lat":32.0518,"lng":34.9555},{"code":"3618","name":"אלעזר"},{"code":"3750","name":"אלפי מנשה","lat":32.1755,"lng":34.9745},{"code":"603","name":"אלקוש","lat":33.0567,"lng":35.4017},{"code":"3560","name":"אלקנה","lat":32.1098,"lng":35.0294},{"code":"772","name":"אמונים"},{"code":"1064","name":"אמירים"},{"code":"1253","name":"אמנון"},{"code":"23","name":"אמציה"},{"code":"4012","name":"אניעם","lat":33.0667,"lng":35.8017},{"code":"960","name":"אסד (שבט)","aliases":["אסד","אסד שבט"]},{"code":"3754","name":"אספר","lat":31.44,"lng":35.1417},{"code":"529","name":"אעבלין","lat":32.8275,"lng":35.2295},{"code":"963","name":"אעצם (שבט)","aliases":["אעצם","אעצם שבט"]},{"code":"4301","name":"אפיק","lat":32.7764,"lng":35.6878},{"code":"176","name":"אפיקים","lat":32.6833,"lng":35.575},{"code":"2032","name":"אפעל-בית אבות"},{"code":"313","name":"אפק"},{"code":"3650","name":"אפרת","aliases":["אפרתה"],"lat":31.6625,"lng":35.1531},{"code":"701","name":"ארבל","lat":32.8567,"lng":35.4867},{"code":"3598","name":"ארגמן","lat":32.06,"lng":35.41},{"code":"714","name":"ארז","lat":31.555,"lng":34.5067},{"code":"3570","name":"אריאל","lat":32.1049,"lng":35.1736},{"code":"1324","name":"ארסוף","lat":32.18,"lng":34.81},{"code":"71","name":"אשבול"},{"code":"70","name":"אשדוד","lat":31.8014,"lng":34.6434},{"code":"199","name":"אשדות יעקב איחוד"},{"code":"188","name":"אשדות יעקב מאוחד"},{"code":"1188","name":"אשחר"},{"code":"3722","name":"אשכולות","lat":31.355,"lng":35.03},{"code":"2021","name":"אשל הנשיא"},{"code":"1152","name":"אשלים","lat":30.965,"lng":34.525},{"code":"7100","name":"אשקלון","lat":31.6688,"lng":34.5743},{"code":"1256","name":"אשרת"},{"code":"740","name":"אשתאול"},{"code":"6000","name":"באקה אל-גרביה","aliases":["באקה אלגרביה"],"lat":32.419,"lng":35.0409},{"code":"21","name":"באר אורה"},{"code":"1376","name":"באר גנים"},{"code":"155","name":"באר טוביה","lat":31.74,"lng":34.7267},{"code":"2530","name":"באר יעקב","lat":31.9397,"lng":34.8339},{"code":"1278","name":"באר מילכה"},{"code":"9000","name":"באר שבע","lat":31.253,"lng":34.7915},{"code":"450","name":"בארות יצחק","lat":32.095,"lng":34.915},{"code":"697","name":"בארותיים"},{"code":"399","name":"בארי"},{"code":"5432","name":"בדולח"},{"code":"559","name":"בוסתן הגליל"},{"code":"482","name":"בועיינה-נוג'ידאת","aliases":["בועיינהנוגידאת"],"lat":32.7483,"lng":35.27},{"code":"4001","name":"בוקעאתא","lat":33.2218,"lng":35.7635},{"code":"698","name":"בורגתה"},{"code":"2043","name":"בחן"},{"code":"762","name":"בטחה"},{"code":"234","name":"ביצרון"},{"code":"998","name":"ביר אל-מכסור","aliases":["ביר אלמכסור"],"lat":32.83,"lng":35.2},{"code":"1348","name":"ביר הדאג'","aliases":["ביר הדאג"],"lat":31.25,"lng":34.76},{"code":"368","name":"ביריה"},{"code":"317","name":"בית אורן","lat":32.7133,"lng":35.0167},{"code":"3574","name":"בית אל","lat":31.9435,"lng":35.2265},{"code":"562","name":"בית אלעזרי"},{"code":"95","name":"בית אלפא","lat":32.5133,"lng":35.3917},{"code":"3652","name":"בית אריה","lat":32.0392,"lng":35.0502},{"code":"480","name":"בית ג'ן","aliases":["בית גן"],"lat":33.0117,"lng":35.3783},{"code":"619","name":"בית גוברין"},{"code":"571","name":"בית גמליאל"},{"code":"466","name":"בית דגן"},{"code":"723","name":"בית הגדי"},{"code":"373","name":"בית הלוי"},{"code":"322","name":"בית הלל"},{"code":"572","name":"בית העמק"},{"code":"3645","name":"בית הערבה","lat":31.76,"lng":35.48},{"code":"242","name":"בית השיטה","lat":32.5567,"lng":35.4217},{"code":"353","name":"בית זיד"},{"code":"710","name":"בית זית"},{"code":"143","name":"בית זרע"},{"code":"3575","name":"בית חורון","lat":31.87,"lng":35.135},{"code":"877","name":"בית חירות","aliases":["בית חרות"]},{"code":"2033","name":"בית חלקיה"},{"code":"159","name":"בית חנן"},{"code":"800","name":"בית חנניה"},{"code":"1050","name":"בית חשמונאי","lat":31.9107,"lng":34.9696},{"code":"288","name":"בית יהושע"},{"code":"265","name":"בית יוסף"},{"code":"200","name":"בית ינאי"},{"code":"326","name":"בית יצחק-שער חפר","aliases":["בית יצחקשער חפר"]},{"code":"430","name":"בית לחם הגלילית"},{"code":"751","name":"בית מאיר"},{"code":"784","name":"בית נחמיה"},{"code":"16","name":"בית ניר"},{"code":"672","name":"בית נקופה"},{"code":"202","name":"בית עובד"},{"code":"301","name":"בית עוזיאל"},{"code":"756","name":"בית עזרא"},{"code":"604","name":"בית עריף"},{"code":"212","name":"בית צבי"},{"code":"598","name":"בית קמה"},{"code":"365","name":"בית קשת"},{"code":"848","name":"בית רבן"},{"code":"1162","name":"בית רימון"},{"code":"9200","name":"בית שאן","lat":32.5006,"lng":35.4964},{"code":"2610","name":"בית שמש","lat":31.7468,"lng":34.9867},{"code":"248","name":"בית שערים"},{"code":"747","name":"בית שקמה"},{"code":"252","name":"ביתן אהרן"},{"code":"3780","name":"ביתר עילית","aliases":["בית\"ר עילית"],"lat":31.6974,"lng":35.1193},{"code":"94","name":"בלפוריה"},{"code":"760","name":"בן זכאי"},{"code":"712","name":"בן עמי"},{"code":"1084","name":"בן שמן כפר נוער","aliases":["בן שמן-כפר הנוער"]},{"code":"2013","name":"בן שמן מושב","aliases":["בן שמן-מושב"]},{"code":"6100","name":"בני ברק","lat":32.0844,"lng":34.8381},{"code":"1368","name":"בני דקלים"},{"code":"592","name":"בני דרום"},{"code":"386","name":"בני דרור","lat":32.3,"lng":34.86},{"code":"4015","name":"בני יהודה","lat":32.9225,"lng":35.7275},{"code":"1363","name":"בני נצרים"},{"code":"448","name":"בני עטרות"},{"code":"1066","name":"בני עי\"ש","aliases":["בני עיש"],"lat":31.7468,"lng":34.745},{"code":"5425","name":"בני עצמון"},{"code":"418","name":"בני ציון"},{"code":"588","name":"בני ראם"},{"code":"685","name":"בניה"},{"code":"9800","name":"בנימינה-גבעת עדה","aliases":["בנימינה","בנימינהגבעת עדה"],"lat":32.5222,"lng":34.9468},{"code":"1326","name":"בסמ\"ה","aliases":["בסמה"]},{"code":"944","name":"בסמת טבעון","lat":32.7333,"lng":35.1517},{"code":"483","name":"בענה","lat":32.9028,"lng":35.2432},{"code":"389","name":"בצרה"},{"code":"589","name":"בצת"},{"code":"864","name":"בקוע"},{"code":"3612","name":"בקעות","lat":32.0844,"lng":35.4293},{"code":"823","name":"בר גיורא"},{"code":"1191","name":"בר יוחאי"},{"code":"3744","name":"ברוכין","lat":32.0667,"lng":35.0533},{"code":"428","name":"ברור חיל","lat":31.3167,"lng":34.5667},{"code":"2060","name":"ברוש"},{"code":"3710","name":"ברכה","lat":32.19,"lng":35.2717},{"code":"746","name":"ברכיה"},{"code":"667","name":"ברעם"},{"code":"141","name":"ברק"},{"code":"617","name":"ברקאי"},{"code":"3654","name":"ברקן","lat":32.3433,"lng":35.1167},{"code":"2038","name":"ברקת"},{"code":"1323","name":"בת הדר"},{"code":"1361","name":"בת חן"},{"code":"1319","name":"בת חפר","lat":32.36,"lng":34.895},{"code":"1401","name":"בת חצור"},{"code":"6200","name":"בת ים","lat":32.0171,"lng":34.7515},{"code":"3794","name":"בת עין","lat":31.6425,"lng":35.1049},{"code":"33","name":"בת שלמה"},{"code":"1292","name":"ג'דיידה-מכר","aliases":["גדיידהמכר"],"lat":32.9269,"lng":35.1552},{"code":"485","name":"ג'ולס","aliases":["גולס"],"lat":32.955,"lng":35.1718},{"code":"627","name":"ג'לג'וליה","aliases":["גלגוליה"],"lat":32.1568,"lng":34.9582},{"code":"976","name":"ג'נאביב (שבט)","aliases":["ג'נאביב","גנאביב שבט"]},{"code":"541","name":"ג'סר א-זרקא","aliases":["ג'סאר א-זרקא","גסר אזרקא"],"lat":32.5336,"lng":34.9034},{"code":"487","name":"ג'ש (גוש חלב)","aliases":["ג'ש-גוש חלב","גש גוש חלב"]},{"code":"628","name":"ג'ת","aliases":["גת"],"lat":32.4515,"lng":35.066},{"code":"872","name":"גאולי תימן"},{"code":"379","name":"גאולים"},{"code":"853","name":"גאליה"},{"code":"352","name":"גבולות"},{"code":"424","name":"גבים","lat":31.4117,"lng":34.54},{"code":"86","name":"גבע","lat":32.5683,"lng":35.3917},{"code":"3763","name":"גבע בנימין","lat":31.8822,"lng":35.27},{"code":"683","name":"גבע כרמל"},{"code":"2014","name":"גבעולים"},{"code":"3644","name":"גבעון החדשה","lat":31.8482,"lng":35.1456},{"code":"1344","name":"גבעות בר"},{"code":"1293","name":"גבעת אבני"},{"code":"1288","name":"גבעת אלה"},{"code":"147","name":"גבעת ברנר"},{"code":"870","name":"גבעת השלושה"},{"code":"3730","name":"גבעת זאב","lat":31.8624,"lng":35.1728},{"code":"207","name":"גבעת ח\"ן","aliases":["גבעת חן"]},{"code":"2018","name":"גבעת חיים איחוד"},{"code":"173","name":"גבעת חיים מאוחד"},{"code":"4021","name":"גבעת יואב","lat":32.76,"lng":35.705},{"code":"787","name":"גבעת יערים"},{"code":"919","name":"גבעת ישעיהו"},{"code":"802","name":"גבעת כ\"ח","aliases":["גבעת כח"]},{"code":"360","name":"גבעת ניל\"י","aliases":["גבעת נילי"]},{"code":"50","name":"גבעת עדה"},{"code":"703","name":"גבעת עוז"},{"code":"681","name":"גבעת שמואל","lat":32.0784,"lng":34.8511},{"code":"1077","name":"גבעת שפירא"},{"code":"793","name":"גבעתי"},{"code":"6300","name":"גבעתיים","lat":32.0697,"lng":34.8114},{"code":"342","name":"גברעם"},{"code":"133","name":"גבת"},{"code":"35","name":"גדות"},{"code":"5429","name":"גדיד"},{"code":"145","name":"גדיש"},{"code":"442","name":"גדעונה"},{"code":"2550","name":"גדרה","lat":31.8137,"lng":34.7778},{"code":"852","name":"גונן"},{"code":"755","name":"גורן"},{"code":"1219","name":"גורנות הגליל"},{"code":"457","name":"גזית"},{"code":"370","name":"גזר"},{"code":"706","name":"גיאה"},{"code":"196","name":"גיבתון"},{"code":"1043","name":"גיזו"},{"code":"1204","name":"גילון"},{"code":"736","name":"גילת"},{"code":"262","name":"גינוסר","lat":32.8367,"lng":35.52},{"code":"92","name":"גיניגר"},{"code":"863","name":"גינתון"},{"code":"1206","name":"גיתה"},{"code":"3613","name":"גיתית","lat":32.105,"lng":35.4583},{"code":"393","name":"גלאון"},{"code":"3606","name":"גלגל","lat":31.983,"lng":35.444},{"code":"346","name":"גליל ים"},{"code":"369","name":"גלעד (אבן יצחק)","aliases":["אבן יצחק","גלעד אבן יצחק"]},{"code":"745","name":"גמזו"},{"code":"5431","name":"גן אור"},{"code":"1072","name":"גן הדרום"},{"code":"225","name":"גן השומרון"},{"code":"239","name":"גן חיים"},{"code":"734","name":"גן יאשיה"},{"code":"166","name":"גן יבנה","lat":31.7894,"lng":34.7067},{"code":"1274","name":"גן נר"},{"code":"311","name":"גן שורק"},{"code":"144","name":"גן שלמה"},{"code":"72","name":"גן שמואל"},{"code":"836","name":"גנות"},{"code":"549","name":"גנות הדר"},{"code":"1103","name":"גני הדר"},{"code":"1371","name":"גני טל"},{"code":"5424","name":"גני טל"},{"code":"781","name":"גני יהודה"},{"code":"862","name":"גני יוחנן"},{"code":"3823","name":"גני מודיעין","lat":31.9133,"lng":35.0183},{"code":"218","name":"גני עם"},{"code":"229","name":"גני תקווה","lat":32.0614,"lng":34.8725},{"code":"3758","name":"גנים"},{"code":"842","name":"געש"},{"code":"463","name":"געתון"},{"code":"39","name":"גפן"},{"code":"1129","name":"גרופית"},{"code":"4022","name":"גשור","lat":32.7117,"lng":35.715},{"code":"305","name":"גשר"},{"code":"574","name":"גשר הזיו","lat":33.06,"lng":35.1067},{"code":"340","name":"גת (קיבוץ)","aliases":["גת","גת קיבוץ"]},{"code":"128","name":"גת רימון"},{"code":"494","name":"דאלית אל-כרמל","aliases":["דאלית אלכרמל"],"lat":32.6917,"lng":35.0433},{"code":"146","name":"דבורה"},{"code":"489","name":"דבוריה","lat":32.685,"lng":35.375},{"code":"849","name":"דבירה"},{"code":"407","name":"דברת"},{"code":"62","name":"דגניה א","aliases":["דגניה א'"]},{"code":"79","name":"דגניה ב","aliases":["דגניה ב'"]},{"code":"1067","name":"דוב\"ב","aliases":["דובב"]},{"code":"3747","name":"דולב"},{"code":"738","name":"דור"},{"code":"336","name":"דורות"},{"code":"475","name":"דחי"},{"code":"490","name":"דייר אל-אסד","aliases":["דיר אל-אסד","דייר אלאסד"],"lat":32.8617,"lng":35.2517},{"code":"492","name":"דייר חנא","aliases":["דיר חנא"],"lat":32.8683,"lng":35.3517},{"code":"2200","name":"דימונה","lat":31.0674,"lng":35.0322},{"code":"2063","name":"דישון"},{"code":"300","name":"דליה","lat":32.5433,"lng":35.03},{"code":"431","name":"דלתון"},{"code":"1317","name":"דמיידה"},{"code":"303","name":"דן"},{"code":"302","name":"דפנה"},{"code":"1241","name":"דקל"},{"code":"1349","name":"דריג'את","aliases":["דריגאת"],"lat":31.26,"lng":34.87},{"code":"702","name":"האון"},{"code":"675","name":"הבונים"},{"code":"356","name":"הגושרים"},{"code":"191","name":"הדר עם"},{"code":"9700","name":"הוד השרון","lat":32.15,"lng":34.8877},{"code":"726","name":"הודיה"},{"code":"1169","name":"הוואשלה (שבט)","aliases":["הוואשלה","הוואשלה שבט"]},{"code":"956","name":"הוזייל (שבט)","aliases":["הוזייל","הוזייל שבט"]},{"code":"1186","name":"הושעיה","lat":32.7367,"lng":35.2817},{"code":"250","name":"הזורע"},{"code":"307","name":"הזורעים"},{"code":"434","name":"החותרים"},{"code":"684","name":"היוגב"},{"code":"1208","name":"הילה"},{"code":"377","name":"המעפיל"},{"code":"677","name":"הסוללים"},{"code":"423","name":"העוגן"},{"code":"3769","name":"הר אדר","lat":31.8201,"lng":35.1379},{"code":"3603","name":"הר גילה","lat":31.705,"lng":35.095},{"code":"1261","name":"הר עמשא"},{"code":"464","name":"הראל"},{"code":"1249","name":"הרדוף"},{"code":"6400","name":"הרצליה","lat":32.1629,"lng":34.8441},{"code":"1203","name":"הררית"},{"code":"3639","name":"ורד יריחו","lat":31.94,"lng":35.42},{"code":"1133","name":"ורדון"},{"code":"815","name":"זבדיאל"},{"code":"44","name":"זוהר"},{"code":"584","name":"זיקים","lat":31.62,"lng":34.53},{"code":"788","name":"זיתן"},{"code":"9300","name":"זכרון יעקב","lat":32.5714,"lng":34.95},{"code":"799","name":"זכריה"},{"code":"1290","name":"זמר","lat":32.42,"lng":35.02},{"code":"1065","name":"זמרת"},{"code":"816","name":"זנוח"},{"code":"2064","name":"זרועה"},{"code":"975","name":"זרזיר","lat":32.7207,"lng":35.2517},{"code":"818","name":"זרחיה"},{"code":"1321","name":"ח'ואלד","aliases":["חואלד"],"lat":32.6917,"lng":35.135},{"code":"986","name":"ח'ואלד"},{"code":"235","name":"חבצלת השרון"},{"code":"1110","name":"חבר"},{"code":"3400","name":"חברון","lat":31.5308,"lng":35.0954},{"code":"717","name":"חגור"},{"code":"3764","name":"חגי","lat":31.473,"lng":35.0943},{"code":"205","name":"חגלה"},{"code":"4026","name":"חד-נס","aliases":["חדנס"],"lat":32.7017,"lng":35.6817},{"code":"618","name":"חדיד"},{"code":"6500","name":"חדרה","lat":32.4341,"lng":34.9196},{"code":"160","name":"חולדה"},{"code":"6600","name":"חולון","lat":32.0114,"lng":34.7748},{"code":"1239","name":"חולית"},{"code":"253","name":"חולתה"},{"code":"3642","name":"חומש"},{"code":"662","name":"חוסן"},{"code":"1332","name":"חוסנייה","lat":31.3,"lng":34.85},{"code":"115","name":"חופית"},{"code":"374","name":"חוקוק"},{"code":"1303","name":"חורה","lat":31.2932,"lng":34.9332},{"code":"496","name":"חורפיש","aliases":["חרפיש"],"lat":33.0517,"lng":35.3383},{"code":"355","name":"חורשים"},{"code":"1047","name":"חזון"},{"code":"219","name":"חיבת ציון"},{"code":"3643","name":"חיננית","lat":32.395,"lng":35.205},{"code":"4000","name":"חיפה","lat":32.8153,"lng":34.9931},{"code":"162","name":"חירות","aliases":["חרות"]},{"code":"1272","name":"חלוץ"},{"code":"820","name":"חלץ"},{"code":"993","name":"חמאם"},{"code":"801","name":"חמד"},{"code":"343","name":"חמדיה"},{"code":"3646","name":"חמדת","lat":32.1167,"lng":35.475},{"code":"3609","name":"חמרה","lat":32.0917,"lng":35.5083},{"code":"807","name":"חניאל"},{"code":"280","name":"חניתה"},{"code":"1257","name":"חנתון"},{"code":"4005","name":"חספין","lat":32.7833,"lng":35.66},{"code":"363","name":"חפץ חיים"},{"code":"90","name":"חפצי-בה","aliases":["חפציבה"]},{"code":"700","name":"חצב"},{"code":"13","name":"חצבה","lat":30.755,"lng":35.2817},{"code":"2034","name":"חצור הגלילית","lat":32.985,"lng":35.546},{"code":"406","name":"חצור-אשדוד","aliases":["חצוראשדוד"],"lat":31.68,"lng":34.65},{"code":"1409","name":"חצר בארותיים"},{"code":"1404","name":"חצרות יסף"},{"code":"397","name":"חצרים","lat":31.3333,"lng":34.7117},{"code":"422","name":"חרב לאת"},{"code":"1024","name":"חרוצים"},{"code":"1247","name":"חריש","aliases":["קציר-חריש"],"lat":32.4628,"lng":35.0493},{"code":"3717","name":"חרמש","lat":32.39,"lng":35.17},{"code":"1209","name":"חרשים"},{"code":"3770","name":"חשמונאים","lat":31.9437,"lng":35.0267},{"code":"6700","name":"טבריה","lat":32.7922,"lng":35.5312},{"code":"962","name":"טובא-זנגריה","aliases":["טובה-זנגריה","טובאזנגריה"],"lat":33.0108,"lng":35.5069},{"code":"498","name":"טורעאן","lat":32.7769,"lng":35.3117},{"code":"2730","name":"טייבה","aliases":["טייבה במשולש"],"lat":32.2656,"lng":35.0084},{"code":"497","name":"טייבה בעמק","aliases":["טייבה-בעמק"]},{"code":"2720","name":"טירה","lat":32.2337,"lng":34.9497},{"code":"663","name":"טירת יהודה"},{"code":"2100","name":"טירת כרמל","lat":32.7597,"lng":34.9714},{"code":"268","name":"טירת צבי"},{"code":"462","name":"טל שחר"},{"code":"1181","name":"טל-אל","aliases":["טלאל"]},{"code":"1177","name":"טללים"},{"code":"3788","name":"טלמון","lat":31.9605,"lng":35.0988},{"code":"8900","name":"טמרה","lat":32.853,"lng":35.1982},{"code":"547","name":"טמרה יזרעאל","aliases":["טמרה-יזרעאל"]},{"code":"3743","name":"טנא"},{"code":"1214","name":"טפחות"},{"code":"1295","name":"יאנוח-ג'ת","aliases":["יאנוחגת"],"lat":32.9433,"lng":35.2917},{"code":"1232","name":"יבול"},{"code":"46","name":"יבנאל","lat":32.715,"lng":35.5017},{"code":"2660","name":"יבנה","lat":31.8784,"lng":34.7382},{"code":"96","name":"יגור","lat":32.7317,"lng":35.07},{"code":"798","name":"יגל"},{"code":"577","name":"יד בנימין"},{"code":"1134","name":"יד השמונה"},{"code":"758","name":"יד חנה"},{"code":"358","name":"יד מרדכי","lat":31.54,"lng":34.555},{"code":"775","name":"יד נתן"},{"code":"64","name":"יד רמב\"ם","aliases":["יד רמבם"]},{"code":"9400","name":"יהוד-מונוסון","aliases":["יהוד","יהודמונוסון"],"lat":32.0316,"lng":34.8882},{"code":"1158","name":"יהל","lat":29.9517,"lng":35.04},{"code":"2009","name":"יובל"},{"code":"1226","name":"יובלים"},{"code":"1112","name":"יודפת"},{"code":"4007","name":"יונתן","lat":32.9517,"lng":35.7183},{"code":"803","name":"יושיביה"},{"code":"452","name":"יזרעאל","lat":32.5433,"lng":35.3267},{"code":"409","name":"יחיעם"},{"code":"866","name":"יטבתה"},{"code":"3607","name":"ייט\"ב","aliases":["ייטב"],"lat":31.895,"lng":35.455},{"code":"811","name":"יכיני"},{"code":"753","name":"ינוב"},{"code":"2011","name":"ינון"},{"code":"29","name":"יסוד המעלה","lat":33.1117,"lng":35.5717},{"code":"440","name":"יסודות"},{"code":"575","name":"יסעור"},{"code":"1138","name":"יעד"},{"code":"1044","name":"יעף"},{"code":"795","name":"יערה"},{"code":"499","name":"יפיע","lat":32.6807,"lng":35.2732},{"code":"3566","name":"יפית","lat":32.007,"lng":35.4398},{"code":"134","name":"יפעת"},{"code":"453","name":"יפתח"},{"code":"3749","name":"יצהר","lat":32.1123,"lng":35.262},{"code":"759","name":"יציץ"},{"code":"417","name":"יקום"},{"code":"3647","name":"יקיר"},{"code":"241","name":"יקנעם מושבה","aliases":["יקנעם-מושבה"],"lat":32.66,"lng":35.1067},{"code":"240","name":"יקנעם עילית","lat":32.6575,"lng":35.1078},{"code":"623","name":"יראון"},{"code":"2026","name":"ירדנה"},{"code":"831","name":"ירוחם","lat":30.9879,"lng":34.929},{"code":"3000","name":"ירושלים","lat":31.7683,"lng":35.2137},{"code":"718","name":"ירחיב"},{"code":"502","name":"ירכא","lat":32.9549,"lng":35.1856},{"code":"183","name":"ירקונה"},{"code":"916","name":"ישע"},{"code":"805","name":"ישעי"},{"code":"828","name":"ישרש"},{"code":"1227","name":"יתד"},{"code":"504","name":"כאבול","lat":32.87,"lng":35.2098},{"code":"505","name":"כאוכב אבו אל-היג'א","aliases":["כאוכב אל-היג'א","כאוכב אבו אלהיגא"],"lat":32.8017,"lng":35.2533},{"code":"576","name":"כברי","lat":33.0283,"lng":35.1433},{"code":"3729","name":"כדים"},{"code":"1338","name":"כדיתה"},{"code":"3564","name":"כוכב השחר","lat":31.9317,"lng":35.315},{"code":"1224","name":"כוכב יאיר","lat":32.2214,"lng":34.9791},{"code":"3779","name":"כוכב יעקב","lat":31.8534,"lng":35.2517},{"code":"824","name":"כוכב מיכאל"},{"code":"1252","name":"כורזים"},{"code":"1210","name":"כחל"},{"code":"1367","name":"כחלה"},{"code":"840","name":"כיסופים","lat":31.32,"lng":34.4833},{"code":"1153","name":"כישור"},{"code":"1183","name":"כליל"},{"code":"1229","name":"כלנית"},{"code":"1331","name":"כמאנה","lat":32.8767,"lng":35.2617},{"code":"1291","name":"כמהין"},{"code":"1201","name":"כמון"},{"code":"4028","name":"כנף","lat":32.8783,"lng":35.705},{"code":"63","name":"כנרת מושבה","aliases":["כנרת-מושבה"]},{"code":"57","name":"כנרת קבוצה","aliases":["כנרת-קבוצה"]},{"code":"1059","name":"כסיפה","lat":31.2284,"lng":34.9842},{"code":"859","name":"כסלון"},{"code":"1296","name":"כסרא-סמיע","aliases":["כסראסמיע"],"lat":32.9617,"lng":35.1617},{"code":"978","name":"כעביה-טבאש-חג'אג'רה","aliases":["כעביה-טבאש-חג'אג'","כעביהטבאשחגאגרה"],"lat":32.7133,"lng":35.225},{"code":"857","name":"כפר אביב"},{"code":"3638","name":"כפר אדומים","lat":31.8095,"lng":35.3293},{"code":"364","name":"כפר אוריה"},{"code":"180","name":"כפר אז\"ר"},{"code":"690","name":"כפר אחים"},{"code":"220","name":"כפר ביאליק"},{"code":"177","name":"כפר ביל\"ו","aliases":["כפר בילו"]},{"code":"357","name":"כפר בלום"},{"code":"2010","name":"כפר בן נון"},{"code":"633","name":"כפר ברא","lat":32.1045,"lng":34.9765},{"code":"132","name":"כפר ברוך"},{"code":"106","name":"כפר גדעון"},{"code":"427","name":"כפר גלים"},{"code":"310","name":"כפר גליקסון"},{"code":"76","name":"כפר גלעדי","lat":33.1783,"lng":35.5617},{"code":"707","name":"כפר דניאל"},{"code":"5405","name":"כפר דרום"},{"code":"3796","name":"כפר האורנים","aliases":["מנורה"]},{"code":"192","name":"כפר החורש"},{"code":"254","name":"כפר המכבי"},{"code":"582","name":"כפר הנגיד"},{"code":"890","name":"כפר הנוער הדתי"},{"code":"443","name":"כפר הנשיא"},{"code":"187","name":"כפר הס"},{"code":"217","name":"כפר הרא\"ה","aliases":["כפר הראה"]},{"code":"888","name":"כפר הרי\"ף","aliases":["כפר הריף"]},{"code":"190","name":"כפר ויתקין"},{"code":"320","name":"כפר ורבורג"},{"code":"1263","name":"כפר ורדים"},{"code":"786","name":"כפר זיתים"},{"code":"696","name":"כפר חב\"ד","aliases":["כפר חבד"],"lat":31.99,"lng":34.845},{"code":"609","name":"כפר חושן","aliases":["ספסופה"]},{"code":"255","name":"כפר חיטים"},{"code":"193","name":"כפר חיים"},{"code":"1297","name":"כפר חנניה"},{"code":"112","name":"כפר חסידים א","aliases":["כפר חסידים א'"]},{"code":"889","name":"כפר חסידים ב","aliases":["כפר חסידים ב'"]},{"code":"4004","name":"כפר חרוב","lat":32.7767,"lng":35.6417},{"code":"673","name":"כפר טרומן"},{"code":"507","name":"כפר יאסיף","lat":32.956,"lng":35.152},{"code":"233","name":"כפר ידידיה","aliases":["ידידיה"]},{"code":"140","name":"כפר יהושע"},{"code":"168","name":"כפר יונה","lat":32.3169,"lng":34.9312},{"code":"85","name":"כפר יחזקאל"},{"code":"170","name":"כפר יעבץ"},{"code":"508","name":"כפר כמא","lat":32.7228,"lng":35.4432},{"code":"509","name":"כפר כנא","lat":32.745,"lng":35.3414},{"code":"387","name":"כפר מונש","lat":32.34,"lng":34.88},{"code":"1095","name":"כפר מימון"},{"code":"98","name":"כפר מל\"ל","aliases":["כפר מלל"]},{"code":"510","name":"כפר מנדא","lat":32.8883,"lng":35.2183},{"code":"274","name":"כפר מנחם"},{"code":"297","name":"כפר מסריק"},{"code":"512","name":"כפר מצר","lat":32.885,"lng":35.2717},{"code":"764","name":"כפר מרדכי"},{"code":"316","name":"כפר נטר"},{"code":"345","name":"כפר סאלד","aliases":["כפר סולד"]},{"code":"6900","name":"כפר סבא","lat":32.1754,"lng":34.9067},{"code":"107","name":"כפר סילבר"},{"code":"249","name":"כפר סירקין"},{"code":"845","name":"כפר עזה","lat":31.485,"lng":34.4833},{"code":"3488","name":"כפר עציון","lat":31.654,"lng":35.113},{"code":"189","name":"כפר פינס"},{"code":"634","name":"כפר קאסם","lat":32.1145,"lng":34.9762},{"code":"388","name":"כפר קיש"},{"code":"654","name":"כפר קרע","lat":32.5098,"lng":35.0882},{"code":"579","name":"כפר ראש הנקרה"},{"code":"1130","name":"כפר רוזנואלד (זרעית)","aliases":["כפר רוזנואלד","כפר רוזנואלד זרעית"]},{"code":"295","name":"כפר רופין"},{"code":"1166","name":"כפר רות"},{"code":"605","name":"כפר שמאי"},{"code":"743","name":"כפר שמואל"},{"code":"267","name":"כפר שמריהו","lat":32.19,"lng":34.8},{"code":"47","name":"כפר תבור","lat":32.6883,"lng":35.42},{"code":"3572","name":"כפר תפוח","lat":32.125,"lng":35.2233},{"code":"1285","name":"כרכום"},{"code":"664","name":"כרם בן זמרה"},{"code":"1094","name":"כרם יבנה (ישיבה)","aliases":["כרם יבנה","כרם יבנה ישיבה"]},{"code":"580","name":"כרם מהר\"ל","aliases":["כרם מהרל"]},{"code":"1085","name":"כרם שלום"},{"code":"1264","name":"כרמי יוסף"},{"code":"3766","name":"כרמי צור","lat":31.5632,"lng":35.099},{"code":"1374","name":"כרמי קטיף"},{"code":"1139","name":"כרמיאל","lat":32.9183,"lng":35.2953},{"code":"768","name":"כרמיה"},{"code":"1198","name":"כרמים"},{"code":"3656","name":"כרמל","lat":31.4117,"lng":35.075},{"code":"1207","name":"לבון"},{"code":"585","name":"לביא"},{"code":"1230","name":"לבנים"},{"code":"2023","name":"להב"},{"code":"380","name":"להבות הבשן"},{"code":"715","name":"להבות חביבה"},{"code":"1271","name":"להבים","lat":31.3744,"lng":34.8099},{"code":"7000","name":"לוד","lat":31.9505,"lng":34.8897},{"code":"52","name":"לוזית"},{"code":"595","name":"לוחמי הגיטאות","lat":33.04,"lng":35.1},{"code":"1171","name":"לוטם"},{"code":"1255","name":"לוטן"},{"code":"674","name":"לימן"},{"code":"24","name":"לכיש"},{"code":"1310","name":"לפיד","lat":31.8726,"lng":34.9706},{"code":"1173","name":"לפידות"},{"code":"1060","name":"לקיה","lat":31.3164,"lng":34.8558},{"code":"2055","name":"מאור"},{"code":"102","name":"מאיר שפיה"},{"code":"771","name":"מבוא ביתר"},{"code":"3569","name":"מבוא דותן","lat":32.385,"lng":35.255},{"code":"3709","name":"מבוא חורון","lat":31.8589,"lng":35.0593},{"code":"4204","name":"מבוא חמה","lat":32.7617,"lng":35.6433},{"code":"1141","name":"מבוא מודיעים","lat":31.9165,"lng":35.0233},{"code":"1080","name":"מבועים"},{"code":"829","name":"מבטחים"},{"code":"573","name":"מבקיעים"},{"code":"1015","name":"מבשרת ציון","lat":31.8029,"lng":35.1488},{"code":"516","name":"מג'ד אל-כרום","aliases":["מגד אלכרום"],"lat":32.9213,"lng":35.2419},{"code":"4201","name":"מג'דל שמס","aliases":["מגדל שמס"],"lat":33.2663,"lng":35.7713},{"code":"481","name":"מגאר","lat":32.881,"lng":35.385},{"code":"689","name":"מגדים"},{"code":"65","name":"מגדל","lat":32.8317,"lng":35.5117},{"code":"874","name":"מגדל העמק","lat":32.6799,"lng":35.2414},{"code":"3561","name":"מגדל עוז","lat":31.675,"lng":35.1233},{"code":"3751","name":"מגדלים","lat":32.0817,"lng":35.4017},{"code":"586","name":"מגידו","lat":32.5717,"lng":35.175},{"code":"375","name":"מגל"},{"code":"695","name":"מגן","lat":31.245,"lng":34.58},{"code":"1155","name":"מגן שאול","lat":31.64,"lng":34.6167},{"code":"722","name":"מגשימים"},{"code":"2029","name":"מדרך עוז"},{"code":"1140","name":"מדרשת בן גוריון"},{"code":"3797","name":"מודיעין עילית","lat":31.9309,"lng":35.0435},{"code":"1200","name":"מודיעין-מכבים-רעות","aliases":["מודיעין","מודיעיןמכביםרעות"],"lat":31.8974,"lng":35.0102},{"code":"269","name":"מולדת"},{"code":"208","name":"מוצא עילית"},{"code":"635","name":"מוקייבלה","lat":32.6317,"lng":35.3283},{"code":"5407","name":"מורג"},{"code":"1163","name":"מורן"},{"code":"1178","name":"מורשת"},{"code":"606","name":"מזור"},{"code":"28","name":"מזכרת בתיה","lat":31.8521,"lng":34.8389},{"code":"104","name":"מזרע"},{"code":"517","name":"מזרעה"},{"code":"3599","name":"מחולה","lat":32.3208,"lng":35.4996},{"code":"1411","name":"מחנה הילה"},{"code":"1418","name":"מחנה טלי"},{"code":"1413","name":"מחנה יהודית"},{"code":"1416","name":"מחנה יוכבד"},{"code":"1415","name":"מחנה יפה"},{"code":"1414","name":"מחנה מרים"},{"code":"1417","name":"מחנה עדי"},{"code":"1412","name":"מחנה תל נוף"},{"code":"308","name":"מחניים"},{"code":"776","name":"מחסיה"},{"code":"43","name":"מטולה","lat":33.2802,"lng":35.5735},{"code":"822","name":"מטע"},{"code":"1128","name":"מי עמי"},{"code":"2054","name":"מיטב"},{"code":"649","name":"מייסר","lat":32.4849,"lng":35.0588},{"code":"4019","name":"מיצר","lat":32.8867,"lng":35.7417},{"code":"1282","name":"מירב"},{"code":"607","name":"מירון","lat":32.9817,"lng":35.425},{"code":"731","name":"מישר"},{"code":"1268","name":"מיתר"},{"code":"1273","name":"מכבים-רעות"},{"code":"3614","name":"מכורה","lat":32.1583,"lng":35.5},{"code":"1343","name":"מכחול"},{"code":"382","name":"מכמורת"},{"code":"1202","name":"מכמנים"},{"code":"164","name":"מלאה"},{"code":"2044","name":"מלילות"},{"code":"596","name":"מלכיה"},{"code":"2030","name":"מנוחה"},{"code":"1174","name":"מנוף"},{"code":"1205","name":"מנות"},{"code":"48","name":"מנחמיה"},{"code":"347","name":"מנרה"},{"code":"994","name":"מנשית זבדה","lat":32.49,"lng":35.07},{"code":"1258","name":"מסד"},{"code":"263","name":"מסדה"},{"code":"298","name":"מסילות"},{"code":"742","name":"מסילת ציון","aliases":["מסילת-ציון"]},{"code":"748","name":"מסלול"},{"code":"4203","name":"מסעדה","lat":33.1917,"lng":35.7517},{"code":"939","name":"מסעודין אל-עזאזמה","aliases":["מסעודין אלעזאזמה"]},{"code":"197","name":"מעברות"},{"code":"1082","name":"מעגלים"},{"code":"678","name":"מעגן"},{"code":"694","name":"מעגן מיכאל"},{"code":"272","name":"מעוז חיים"},{"code":"3657","name":"מעון","lat":31.3831,"lng":35.0818},{"code":"570","name":"מעונה"},{"code":"9999","name":"מעטפות חיצוניות"},{"code":"99999","name":"מעטפות חיצוניות"},{"code":"0","name":"מעטפות כפולות"},{"code":"518","name":"מעיליא","aliases":["מעליא"],"lat":33.0267,"lng":35.215},{"code":"416","name":"מעין ברוך"},{"code":"290","name":"מעין צבי"},{"code":"3616","name":"מעלה אדומים","lat":31.7719,"lng":35.283},{"code":"3608","name":"מעלה אפרים","lat":32.0468,"lng":35.3854},{"code":"1127","name":"מעלה גלבוע"},{"code":"4008","name":"מעלה גמלא","lat":32.8717,"lng":35.7517},{"code":"286","name":"מעלה החמישה"},{"code":"3752","name":"מעלה לבונה","lat":31.9767,"lng":35.22},{"code":"3651","name":"מעלה מכמש","lat":31.8638,"lng":35.3068},{"code":"1327","name":"מעלה עירון","lat":32.5083,"lng":35.0617},{"code":"3653","name":"מעלה עמוס","lat":31.5893,"lng":35.1668},{"code":"3637","name":"מעלה שומרון","lat":32.2173,"lng":35.1093},{"code":"1063","name":"מעלות-תרשיחא","aliases":["מעלותתרשיחא"],"lat":33.0168,"lng":35.2716},{"code":"344","name":"מענית"},{"code":"230","name":"מעש"},{"code":"668","name":"מפלסים","lat":31.3967,"lng":34.4917},{"code":"3745","name":"מצדות יהודה","lat":31.455,"lng":35.0467},{"code":"325","name":"מצובה"},{"code":"757","name":"מצליח"},{"code":"58","name":"מצפה"},{"code":"1222","name":"מצפה אבי\"ב","aliases":["מצפה אביב"]},{"code":"1370","name":"מצפה אילן"},{"code":"3576","name":"מצפה יריחו","lat":31.8481,"lng":35.4197},{"code":"1190","name":"מצפה נטופה"},{"code":"99","name":"מצפה רמון","lat":30.6109,"lng":34.8013},{"code":"3610","name":"מצפה שלם","lat":31.4545,"lng":35.3763},{"code":"648","name":"מצר"},{"code":"22","name":"מקווה ישראל"},{"code":"843","name":"מרגליות"},{"code":"4101","name":"מרום גולן","lat":33.1262,"lng":35.7789},{"code":"1340","name":"מרחב עם"},{"code":"97","name":"מרחביה מושב","aliases":["מרחביה-מושב"]},{"code":"66","name":"מרחביה קיבוץ","aliases":["מרחביה-קיבוץ"]},{"code":"1098","name":"מרכז שפירא"},{"code":"421","name":"משאבי שדה","lat":31.2167,"lng":34.7667},{"code":"765","name":"משגב דב"},{"code":"378","name":"משגב עם"},{"code":"520","name":"משהד","lat":32.7348,"lng":35.312},{"code":"3605","name":"משואה","lat":32.0656,"lng":35.4234},{"code":"620","name":"משואות יצחק"},{"code":"3785","name":"משכיות","lat":32.245,"lng":35.505},{"code":"670","name":"משמר איילון"},{"code":"563","name":"משמר דוד"},{"code":"732","name":"משמר הירדן"},{"code":"395","name":"משמר הנגב"},{"code":"130","name":"משמר העמק","lat":32.6183,"lng":35.1683},{"code":"729","name":"משמר השבעה"},{"code":"194","name":"משמר השרון"},{"code":"213","name":"משמרות"},{"code":"425","name":"משמרת"},{"code":"791","name":"משען"},{"code":"1315","name":"מתן","lat":32.2133,"lng":34.9508},{"code":"1184","name":"מתת"},{"code":"3648","name":"מתתיהו","lat":31.943,"lng":35.09},{"code":"4551","name":"נאות גולן","lat":32.7472,"lng":35.6878},{"code":"1124","name":"נאות הכיכר","aliases":["נאות הככר"],"lat":30.985,"lng":35.385},{"code":"408","name":"נאות מרדכי"},{"code":"1197","name":"נאות סמדר","aliases":["שיזפון"]},{"code":"524","name":"נאעורה","lat":32.6338,"lng":35.3432},{"code":"396","name":"נבטים"},{"code":"315","name":"נגבה"},{"code":"3724","name":"נגוהות","lat":31.3983,"lng":35.0417},{"code":"309","name":"נהורה"},{"code":"80","name":"נהלל","lat":32.6917,"lng":35.2417},{"code":"9100","name":"נהריה","lat":33.0026,"lng":35.0966},{"code":"4304","name":"נוב","lat":33.0633,"lng":35.6967},{"code":"55","name":"נוגה"},{"code":"1366","name":"נווה"},{"code":"926","name":"נווה אבות"},{"code":"590","name":"נווה אור"},{"code":"4303","name":"נווה אטי\"ב","aliases":["נווה אטיב"],"lat":33.2517,"lng":35.7883},{"code":"405","name":"נווה אילן"},{"code":"296","name":"נווה איתן"},{"code":"1062","name":"נווה אפרים"},{"code":"3725","name":"נווה דניאל","lat":31.6933,"lng":35.115},{"code":"5427","name":"נווה דקלים"},{"code":"1057","name":"נווה זוהר","lat":31.1917,"lng":35.375},{"code":"1314","name":"נווה זיו"},{"code":"312","name":"נווה ים"},{"code":"686","name":"נווה ימין"},{"code":"858","name":"נווה ירק"},{"code":"827","name":"נווה מבטח"},{"code":"1071","name":"נווה מיכאל"},{"code":"3573","name":"נווה צוף","aliases":["חלמיש","נוה צוף"],"lat":32.02,"lng":35.09},{"code":"1259","name":"נווה שלום"},{"code":"15","name":"נועם"},{"code":"1333","name":"נוף איילון"},{"code":"1061","name":"נוף הגליל","aliases":["נצרת עילית"],"lat":32.7037,"lng":35.3013},{"code":"3790","name":"נופים","lat":32.1167,"lng":35.0467},{"code":"1284","name":"נופית"},{"code":"257","name":"נופך"},{"code":"3726","name":"נוקדים","lat":31.605,"lng":35.2217},{"code":"447","name":"נורדיה","lat":32.245,"lng":34.87},{"code":"833","name":"נורית"},{"code":"844","name":"נח\"ל עוז","aliases":["נחל עוז"],"lat":31.485,"lng":34.495},{"code":"59","name":"נחושה"},{"code":"2045","name":"נחלה"},{"code":"3767","name":"נחליאל","lat":31.9867,"lng":35.1433},{"code":"449","name":"נחלים"},{"code":"809","name":"נחם"},{"code":"522","name":"נחף","lat":32.9421,"lng":35.2672},{"code":"433","name":"נחשולים"},{"code":"777","name":"נחשון"},{"code":"705","name":"נחשונים"},{"code":"1147","name":"נטועה"},{"code":"4014","name":"נטור","lat":32.855,"lng":35.6767},{"code":"1369","name":"נטע"},{"code":"174","name":"נטעים"},{"code":"1254","name":"נטף"},{"code":"523","name":"ניין","lat":32.5983,"lng":35.34},{"code":"3655","name":"ניל\"י","aliases":["נילי"],"lat":31.94,"lng":35.07},{"code":"5426","name":"ניסנית"},{"code":"351","name":"ניצן","aliases":["דוחן"]},{"code":"1419","name":"ניצן ב","aliases":["ניצן ב'"]},{"code":"1195","name":"ניצנה (קהילת חינוך)","aliases":["ניצנה","ניצנה קהילת חינוך"]},{"code":"1280","name":"ניצני סיני"},{"code":"851","name":"ניצני עוז"},{"code":"359","name":"ניצנים","lat":31.6583,"lng":34.5583},{"code":"808","name":"ניר אליהו"},{"code":"553","name":"ניר בנים"},{"code":"720","name":"ניר גלים"},{"code":"256","name":"ניר דוד (תל עמל)","aliases":["ניר דוד","ניר דוד תל עמל"]},{"code":"11","name":"ניר ח\"ן","aliases":["ניר חן"]},{"code":"165","name":"ניר יפה"},{"code":"402","name":"ניר יצחק","lat":31.285,"lng":34.5083},{"code":"699","name":"ניר ישראל"},{"code":"2047","name":"ניר משה"},{"code":"69","name":"ניר עוז","lat":31.39,"lng":34.435},{"code":"348","name":"ניר עם"},{"code":"769","name":"ניר עציון"},{"code":"2048","name":"ניר עקיבא"},{"code":"331","name":"ניר צבי"},{"code":"602","name":"נירים"},{"code":"1236","name":"נירית","lat":32.1714,"lng":34.8875},{"code":"3620","name":"נירן","lat":32.2433,"lng":35.5133},{"code":"825","name":"נס הרים"},{"code":"1143","name":"נס עמים"},{"code":"7200","name":"נס ציונה","lat":31.9286,"lng":34.7983},{"code":"186","name":"נעורים"},{"code":"3787","name":"נעלה","lat":31.875,"lng":35.055},{"code":"3713","name":"נעמה","aliases":["נעמי"],"lat":31.905,"lng":35.4383},{"code":"158","name":"נען"},{"code":"1041","name":"נצאצרה (שבט)","aliases":["נצאצרה","נצאצרה שבט"]},{"code":"1372","name":"נצר חזני"},{"code":"5410","name":"נצר חזני"},{"code":"435","name":"נצר סרני"},{"code":"5408","name":"נצרים"},{"code":"7300","name":"נצרת","lat":32.6996,"lng":35.3035},{"code":"2500","name":"נשר","lat":32.7711,"lng":35.038},{"code":"3555","name":"נתיב הגדוד","lat":32.21,"lng":35.52},{"code":"693","name":"נתיב הל\"ה","aliases":["נתיב הלה"]},{"code":"1242","name":"נתיב העשרה"},{"code":"792","name":"נתיב השיירה"},{"code":"246","name":"נתיבות","lat":31.4196,"lng":34.5878},{"code":"7400","name":"נתניה","lat":32.3215,"lng":34.8532},{"code":"525","name":"סאג'ור","aliases":["סאגור"],"lat":33.0133,"lng":35.3583},{"code":"578","name":"סאסא","lat":33.0383,"lng":35.4267},{"code":"587","name":"סביון","lat":32.075,"lng":34.84},{"code":"2046","name":"סגולה"},{"code":"942","name":"סואעד חמרייה","aliases":["סואעד-חמרייה"]},{"code":"989","name":"סואעד-כמאנה"},{"code":"526","name":"סולם","lat":32.6589,"lng":35.3318},{"code":"3756","name":"סוסיה","lat":31.3913,"lng":35.1051},{"code":"1238","name":"סופה"},{"code":"7500","name":"סח'נין","aliases":["סחנין"],"lat":32.8638,"lng":35.2977},{"code":"1170","name":"סייד (שבט)","aliases":["סייד","סייד שבט"]},{"code":"1245","name":"סלמה"},{"code":"3567","name":"סלעית"},{"code":"1156","name":"סמר"},{"code":"3777","name":"סנסנה","lat":31.365,"lng":35.0517},{"code":"419","name":"סעד","lat":31.3567,"lng":34.545},{"code":"1360","name":"סעוה","aliases":["מולדה"],"lat":31.25,"lng":34.8},{"code":"454","name":"סער","lat":33.0567,"lng":35.085},{"code":"1176","name":"ספיר"},{"code":"610","name":"סתריה"},{"code":"4501","name":"ע'ג'ר","aliases":["עגר"],"lat":33.2218,"lng":35.7502},{"code":"892","name":"עבדון"},{"code":"376","name":"עברון"},{"code":"794","name":"עגור"},{"code":"1199","name":"עדי"},{"code":"2035","name":"עדנים"},{"code":"826","name":"עוזה"},{"code":"528","name":"עוזייר","lat":32.5183,"lng":35.1117},{"code":"737","name":"עולש"},{"code":"666","name":"עומר","lat":31.2647,"lng":34.8488},{"code":"810","name":"עופר"},{"code":"3617","name":"עופרה","lat":31.9532,"lng":35.271},{"code":"3792","name":"עופרים"},{"code":"32","name":"עוצם"},{"code":"957","name":"עוקבי (בנו עוקבה)","aliases":["עוקבי","עוקבי בנו עוקבה"]},{"code":"1149","name":"עזר"},{"code":"837","name":"עזריאל"},{"code":"711","name":"עזריה"},{"code":"817","name":"עזריקם"},{"code":"969","name":"עטאוונה (שבט)","aliases":["עטאוונה","עטאוונה שבט"]},{"code":"3658","name":"עטרת","lat":31.97,"lng":35.13},{"code":"1175","name":"עידן"},{"code":"530","name":"עיילבון","lat":32.8455,"lng":35.3772},{"code":"156","name":"עיינות"},{"code":"511","name":"עילוט","lat":32.74,"lng":35.3183},{"code":"687","name":"עין איילה"},{"code":"546","name":"עין אל-אסד","aliases":["עין אלאסד"]},{"code":"273","name":"עין גב"},{"code":"2042","name":"עין גדי","lat":31.465,"lng":35.3917},{"code":"436","name":"עין דור"},{"code":"1240","name":"עין הבשור"},{"code":"74","name":"עין הוד"},{"code":"167","name":"עין החורש"},{"code":"289","name":"עין המפרץ"},{"code":"383","name":"עין הנצי\"ב","aliases":["עין הנציב"]},{"code":"367","name":"עין העמק"},{"code":"270","name":"עין השופט"},{"code":"676","name":"עין השלושה"},{"code":"157","name":"עין ורד"},{"code":"4503","name":"עין זיוון"},{"code":"1320","name":"עין חוד"},{"code":"89","name":"עין חרוד איחוד","aliases":["עין חרוד-איחוד"]},{"code":"82","name":"עין חרוד מאוחד","aliases":["עין חרוד-מאוחד"]},{"code":"806","name":"עין יהב"},{"code":"813","name":"עין יעקב"},{"code":"426","name":"עין כרמל"},{"code":"532","name":"עין מאהל","lat":32.7283,"lng":35.3329},{"code":"521","name":"עין נקובא","lat":31.8157,"lng":35.1573},{"code":"223","name":"עין עירון"},{"code":"622","name":"עין צורים"},{"code":"4502","name":"עין קנייא"},{"code":"514","name":"עין ראפה","lat":31.7817,"lng":35.1433},{"code":"139","name":"עין שמר"},{"code":"880","name":"עין שריד"},{"code":"1251","name":"עין תמר"},{"code":"871","name":"עינת"},{"code":"7600","name":"עכו","lat":32.9268,"lng":35.0764},{"code":"1146","name":"עלומים"},{"code":"3765","name":"עלי","lat":31.9773,"lng":35.2648},{"code":"3727","name":"עלי זהב","lat":32.1367,"lng":35.0167},{"code":"688","name":"עלמה"},{"code":"3715","name":"עלמון","lat":31.826,"lng":35.2518},{"code":"1212","name":"עמוקה"},{"code":"3824","name":"עמיחי","lat":32,"lng":35.2767},{"code":"779","name":"עמינדב"},{"code":"385","name":"עמיעד"},{"code":"318","name":"עמיעוז"},{"code":"773","name":"עמיקם"},{"code":"319","name":"עמיר"},{"code":"3660","name":"עמנואל","lat":32.166,"lng":35.1533},{"code":"708","name":"עמקה"},{"code":"3712","name":"ענב","lat":32.2917,"lng":35.145},{"code":"534","name":"עספיא","lat":32.7322,"lng":35.0645},{"code":"7700","name":"עפולה","lat":32.6078,"lng":35.2889},{"code":"3778","name":"עץ אפרים","lat":32.1617,"lng":35.0417},{"code":"917","name":"עצמון-שגב","aliases":["שגב","עצמון שגב"]},{"code":"531","name":"עראבה","lat":32.8532,"lng":35.3285},{"code":"1246","name":"עראמשה","lat":33.0833,"lng":35.15},{"code":"1335","name":"ערב אל נעים"},{"code":"2560","name":"ערד"},{"code":"593","name":"ערוגות"},{"code":"637","name":"ערערה","lat":32.4982,"lng":35.0882},{"code":"1192","name":"ערערה-בנגב","aliases":["ערערה בנגב","ערערהבנגב"],"lat":31.2828,"lng":34.9333},{"code":"591","name":"עשרת"},{"code":"53","name":"עתלית","lat":32.6867,"lng":34.94},{"code":"3748","name":"עתניאל","lat":31.4614,"lng":35.0556},{"code":"1151","name":"פארן"},{"code":"5436","name":"פאת שדה"},{"code":"3768","name":"פדואל"},{"code":"750","name":"פדויים"},{"code":"838","name":"פדיה"},{"code":"1104","name":"פוריה כפר עבודה","aliases":["פוריה-כפר עבודה","פוריה  כפר עבודה"]},{"code":"1105","name":"פוריה נווה עובד","aliases":["פוריה-נווה עובד","פוריה  נווה עובד"]},{"code":"1313","name":"פוריה עילית"},{"code":"537","name":"פוריידיס","lat":32.5754,"lng":34.9399},{"code":"767","name":"פורת"},{"code":"749","name":"פטיש"},{"code":"1185","name":"פלך"},{"code":"597","name":"פלמחים"},{"code":"3723","name":"פני חבר"},{"code":"3659","name":"פסגות","lat":31.86,"lng":35.2433},{"code":"535","name":"פסוטה","lat":33.0784,"lng":35.301},{"code":"2059","name":"פעמי תש\"ז","aliases":["פעמי תשז"]},{"code":"3615","name":"פצאל","lat":32.0125,"lng":35.4355},{"code":"536","name":"פקיעין (בוקייעה)","aliases":["פקיעין","פקיעין בוקייעה"]},{"code":"281","name":"פקיעין חדשה"},{"code":"7800","name":"פרדס חנה-כרכור","aliases":["פרדס חנהכרכור"],"lat":32.472,"lng":34.966},{"code":"171","name":"פרדסיה","lat":32.3088,"lng":34.8545},{"code":"599","name":"פרוד"},{"code":"2053","name":"פרזון"},{"code":"1231","name":"פרי גן"},{"code":"7900","name":"פתח תקווה","aliases":["פתח תקוה"],"lat":32.0841,"lng":34.8878},{"code":"839","name":"פתחיה"},{"code":"413","name":"צאלים"},{"code":"1180","name":"צביה"},{"code":"1213","name":"צבעון"},{"code":"465","name":"צובה"},{"code":"1136","name":"צוחר"},{"code":"3791","name":"צופים","aliases":["צופין"]},{"code":"198","name":"צופית"},{"code":"1150","name":"צופר"},{"code":"1102","name":"צוקי ים","lat":32.325,"lng":34.865},{"code":"1262","name":"צוקים"},{"code":"1113","name":"צור הדסה","lat":31.7295,"lng":35.1067},{"code":"1306","name":"צור יגאל"},{"code":"1345","name":"צור יצחק","lat":32.16,"lng":34.94},{"code":"276","name":"צור משה"},{"code":"1148","name":"צור נתן"},{"code":"774","name":"צוריאל"},{"code":"1221","name":"צורית"},{"code":"1308","name":"צורן"},{"code":"613","name":"ציפורי"},{"code":"796","name":"צלפון"},{"code":"636","name":"צנדלה"},{"code":"594","name":"צפריה"},{"code":"1079","name":"צפרירים"},{"code":"8000","name":"צפת","lat":32.9646,"lng":35.4964},{"code":"612","name":"צרופה"},{"code":"567","name":"צרעה"},{"code":"1234","name":"קבועה (שבט)","aliases":["קבועה","קבועה שבט"]},{"code":"334","name":"קבוצת יבנה"},{"code":"3557","name":"קדומים","lat":32.1677,"lng":35.1917},{"code":"964","name":"קדייראת א-צאנע (שבט)","aliases":["קדייראת א-צאנע","קודייראת אצאנעשבט"]},{"code":"195","name":"קדימה-צורן","aliases":["קדימה","קדימהצורן"],"lat":32.2792,"lng":34.9175},{"code":"4025","name":"קדמת צבי","lat":32.8433,"lng":35.7417},{"code":"3781","name":"קדר","lat":31.7267,"lng":35.2867},{"code":"615","name":"קדרון"},{"code":"1211","name":"קדרים"},{"code":"972","name":"קוואעין (שבט)","aliases":["קוואעין","קוואעין שבט"]},{"code":"766","name":"קוממיות"},{"code":"1179","name":"קורנית"},{"code":"1052","name":"קטורה","lat":29.9617,"lng":35.0617},{"code":"5423","name":"קטיף"},{"code":"1167","name":"קיסריה","lat":32.5,"lng":34.89},{"code":"414","name":"קלחים"},{"code":"3601","name":"קליה","lat":31.7592,"lng":35.4573},{"code":"638","name":"קלנסווה","lat":32.2854,"lng":34.9826},{"code":"4024","name":"קלע","lat":32.7567,"lng":35.7117},{"code":"1243","name":"קציר","lat":32.4767,"lng":35.06},{"code":"1347","name":"קצר א-סר","aliases":["קצר אסר"]},{"code":"4100","name":"קצרין","lat":32.9918,"lng":35.6912},{"code":"2620","name":"קרית אונו","lat":32.0595,"lng":34.8575},{"code":"3611","name":"קרית ארבע","lat":31.5274,"lng":35.1236},{"code":"6800","name":"קרית אתא","lat":32.8101,"lng":35.1039},{"code":"9500","name":"קרית ביאליק","lat":32.8277,"lng":35.0842},{"code":"2630","name":"קרית גת","lat":31.6093,"lng":34.768},{"code":"2300","name":"קרית טבעון","lat":32.7225,"lng":35.1312},{"code":"9600","name":"קרית ים","lat":32.8445,"lng":35.0701},{"code":"1137","name":"קרית יערים","aliases":["קרית יערים-מוסד"],"lat":31.77,"lng":35.1267},{"code":"8200","name":"קרית מוצקין","lat":32.8388,"lng":35.0788},{"code":"1034","name":"קרית מלאכי","lat":31.7298,"lng":34.7473},{"code":"3746","name":"קרית נטפים","lat":32.1933,"lng":35.06},{"code":"78","name":"קרית ענבים"},{"code":"469","name":"קרית עקרון","lat":31.863,"lng":34.8245},{"code":"2800","name":"קרית שמונה","lat":33.2084,"lng":35.5715},{"code":"3640","name":"קרני שומרון","lat":32.1729,"lng":35.0954},{"code":"4006","name":"קשת","lat":33.0633,"lng":35.7633},{"code":"543","name":"ראמה","lat":32.9369,"lng":35.3654},{"code":"1334","name":"ראס אל-עין","aliases":["ראס אלעין"]},{"code":"990","name":"ראס עלי"},{"code":"2640","name":"ראש העין","lat":32.0956,"lng":34.9567},{"code":"26","name":"ראש פינה","lat":32.9692,"lng":35.5402},{"code":"3602","name":"ראש צורים","lat":31.6624,"lng":35.1287},{"code":"8300","name":"ראשון לציון","lat":31.973,"lng":34.8069},{"code":"3795","name":"רבבה","lat":32.2133,"lng":35.0933},{"code":"564","name":"רבדים"},{"code":"354","name":"רביבים"},{"code":"390","name":"רגבה"},{"code":"444","name":"רגבים"},{"code":"1161","name":"רהט","lat":31.3939,"lng":34.7493},{"code":"2051","name":"רווחה"},{"code":"2016","name":"רוויה"},{"code":"362","name":"רוחמה"},{"code":"539","name":"רומאנה","lat":32.7883,"lng":35.2783},{"code":"997","name":"רומת הייב","lat":32.7517,"lng":35.2233},{"code":"3619","name":"רועי","lat":32.1633,"lng":35.475},{"code":"3782","name":"רותם","lat":31.335,"lng":35.0967},{"code":"854","name":"רחוב"},{"code":"8400","name":"רחובות","lat":31.8928,"lng":34.8113},{"code":"3822","name":"רחלים","lat":32.0733,"lng":35.275},{"code":"540","name":"ריחאניה","lat":33.0667,"lng":35.5133},{"code":"3568","name":"ריחן","lat":32.45,"lng":35.1917},{"code":"542","name":"ריינה","lat":32.7217,"lng":35.305},{"code":"3565","name":"רימונים","lat":31.9017,"lng":35.2933},{"code":"616","name":"רינתיה"},{"code":"922","name":"רכסים","lat":32.765,"lng":35.106},{"code":"1069","name":"רם-און","aliases":["רםאון"]},{"code":"4702","name":"רמות","lat":33.015,"lng":35.765},{"code":"206","name":"רמות השבים"},{"code":"735","name":"רמות מאיר"},{"code":"445","name":"רמות מנשה"},{"code":"372","name":"רמות נפתלי"},{"code":"8500","name":"רמלה","lat":31.9275,"lng":34.8625},{"code":"1049","name":"רמת אפעל"},{"code":"8600","name":"רמת גן","lat":32.068,"lng":34.8244},{"code":"135","name":"רמת דוד"},{"code":"184","name":"רמת הכובש"},{"code":"335","name":"רמת השופט"},{"code":"2650","name":"רמת השרון","lat":32.1466,"lng":34.838},{"code":"178","name":"רמת יוחנן"},{"code":"122","name":"רמת ישי","lat":32.705,"lng":35.1383},{"code":"4701","name":"רמת מגשימים","lat":32.8117,"lng":35.7633},{"code":"883","name":"רמת פנקס"},{"code":"339","name":"רמת צבי"},{"code":"460","name":"רמת רזיאל"},{"code":"127","name":"רמת רחל"},{"code":"789","name":"רנן"},{"code":"713","name":"רעים","lat":31.405,"lng":34.435},{"code":"8700","name":"רעננה","lat":32.1836,"lng":34.8709},{"code":"5433","name":"רפיח ים"},{"code":"1228","name":"רקפת"},{"code":"247","name":"רשפון"},{"code":"437","name":"רשפים"},{"code":"1260","name":"רתמים"},{"code":"324","name":"שאר ישוב"},{"code":"1377","name":"שבי דרום"},{"code":"282","name":"שבי ציון"},{"code":"3571","name":"שבי שומרון"},{"code":"913","name":"שבלי-אום אל-גנם","aliases":["שבלי  אום אלגנם"],"lat":32.6433,"lng":35.2283},{"code":"1286","name":"שגב-שלום","aliases":["שגב שלום","שגבשלום"],"lat":31.2541,"lng":34.8974},{"code":"721","name":"שדה אילן"},{"code":"304","name":"שדה אליהו"},{"code":"861","name":"שדה אליעזר"},{"code":"885","name":"שדה בוקר","lat":30.8733,"lng":34.7917},{"code":"36","name":"שדה דוד"},{"code":"284","name":"שדה ורבורג"},{"code":"293","name":"שדה יואב"},{"code":"142","name":"שדה יעקב"},{"code":"2008","name":"שדה יצחק"},{"code":"18","name":"שדה משה"},{"code":"259","name":"שדה נחום"},{"code":"329","name":"שדה נחמיה"},{"code":"1058","name":"שדה ניצן"},{"code":"739","name":"שדה עוזיהו"},{"code":"2049","name":"שדה צבי"},{"code":"327","name":"שדות ים"},{"code":"27","name":"שדות מיכה"},{"code":"1223","name":"שדי אברהם"},{"code":"2015","name":"שדי חמד"},{"code":"2057","name":"שדי תרומות"},{"code":"555","name":"שדמה"},{"code":"306","name":"שדמות דבורה"},{"code":"3578","name":"שדמות מחולה","lat":32.3042,"lng":35.4841},{"code":"1031","name":"שדרות","lat":31.5247,"lng":34.5964},{"code":"741","name":"שואבה"},{"code":"761","name":"שובה"},{"code":"394","name":"שובל"},{"code":"1304","name":"שוהם","lat":31.9977,"lng":34.9454},{"code":"614","name":"שומרה"},{"code":"1265","name":"שומריה"},{"code":"415","name":"שוקדה"},{"code":"456","name":"שורש"},{"code":"1235","name":"שורשים"},{"code":"224","name":"שושנת העמקים","aliases":["שושנת העמקים-רסקו"]},{"code":"527","name":"שזור"},{"code":"7","name":"שחר"},{"code":"1266","name":"שחרות"},{"code":"865","name":"שיבולים"},{"code":"658","name":"שיח' דנון","aliases":["שייח דנון"]},{"code":"3641","name":"שילה","lat":31.9932,"lng":35.2862},{"code":"1165","name":"שילת","lat":31.9258,"lng":34.9571},{"code":"1160","name":"שכניה"},{"code":"873","name":"שלווה"},{"code":"439","name":"שלוחות"},{"code":"812","name":"שלומי","lat":33.0717,"lng":35.15},{"code":"1364","name":"שלומית"},{"code":"366","name":"שמיר"},{"code":"3784","name":"שמעה"},{"code":"432","name":"שמרת"},{"code":"1337","name":"שמשית"},{"code":"1287","name":"שני"},{"code":"1132","name":"שניר"},{"code":"538","name":"שעב"},{"code":"4009","name":"שעל","lat":33.0517,"lng":35.725},{"code":"856","name":"שעלבים"},{"code":"661","name":"שער אפרים"},{"code":"264","name":"שער הגולן"},{"code":"237","name":"שער העמקים"},{"code":"921","name":"שער מנשה"},{"code":"3826","name":"שער שומרון","lat":32.2208,"lng":35},{"code":"3720","name":"שערי תקוה","lat":32.1081,"lng":35.0033},{"code":"232","name":"שפיים"},{"code":"692","name":"שפיר"},{"code":"846","name":"שפר"},{"code":"8800","name":"שפרעם","lat":32.8049,"lng":35.1702},{"code":"3649","name":"שקד","lat":32.3333,"lng":35.1667},{"code":"1233","name":"שקף"},{"code":"292","name":"שרונה"},{"code":"1114","name":"שריגים-לי-און","aliases":["לי-און","שריגים ליאון"]},{"code":"126","name":"שריד"},{"code":"398","name":"שרשרת"},{"code":"1045","name":"שתולה"},{"code":"763","name":"שתולים"},{"code":"2062","name":"תאשור"},{"code":"2061","name":"תדהר"},{"code":"1172","name":"תובל"},{"code":"3558","name":"תומר","lat":31.974,"lng":35.4491},{"code":"1083","name":"תושיה"},{"code":"163","name":"תימורים"},{"code":"10","name":"תירוש"},{"code":"5000","name":"תל אביב-יפו","aliases":["תל אביב  יפו"],"lat":32.0853,"lng":34.7818},{"code":"84","name":"תל יוסף"},{"code":"287","name":"תל יצחק"},{"code":"154","name":"תל מונד"},{"code":"103","name":"תל עדשים"},{"code":"719","name":"תל קציר"},{"code":"1054","name":"תל שבע","lat":31.2526,"lng":34.7894},{"code":"1283","name":"תל תאומים","lat":31.25,"lng":34.79},{"code":"3719","name":"תלם","lat":31.445,"lng":35.05},{"code":"1051","name":"תלמי אליהו"},{"code":"2003","name":"תלמי אלעזר"},{"code":"2050","name":"תלמי ביל\"ו","aliases":["תלמי בילו"]},{"code":"1237","name":"תלמי יוסף"},{"code":"727","name":"תלמי יחיאל"},{"code":"744","name":"תלמי יפה"},{"code":"814","name":"תלמים"},{"code":"1244","name":"תמרת","lat":32.73,"lng":35.215},{"code":"2002","name":"תנובות"},{"code":"752","name":"תעוז"},{"code":"709","name":"תפרח"},{"code":"665","name":"תקומה","lat":31.4017,"lng":34.5267},{"code":"3563","name":"תקוע","lat":31.6322,"lng":35.2182},{"code":"1346","name":"תראבין א-צאנע (ישוב)","aliases":["תראבין א-צאנע(ישו","תראבין אצאנעישוב"]},{"code":"970","name":"תראבין א-צאנע (שבט)","aliases":["תראבין א-צאנע","תראבין אצאנע שבט"]},{"code":"778","name":"תרום"}],"dataCompleteness":{"15":{"hasPerCityData":false,"hasPerBallotBoxData":true,"hasEligibleVoters":true,"hasCityCodes":true,"hasInvalidVotes":true,"dataSource":"xls-odata","notes":"מקור: קובץ XLS מ-odata.org.il. נתוני ישובים מחושבים מסיכום קלפיות."},"16":{"hasPerCityData":false,"hasPerBallotBoxData":true,"hasEligibleVoters":true,"hasCityCodes":true,"hasInvalidVotes":true,"dataSource":"ckan-api-aggregated","notes":"נתוני ישובים מחושבים מסיכום קלפיות."},"17":{"hasPerCityData":false,"hasPerBallotBoxData":true,"hasEligibleVoters":false,"hasCityCodes":false,"hasInvalidVotes":false,"dataSource":"ckan-api-aggregated","notes":"חסרים נתוני בעלי זכות בחירה וסמלי ישוב. לא ניתן לחשב אחוז הצבעה."},"18":{"hasPerCityData":false,"hasPerBallotBoxData":true,"hasEligibleVoters":true,"hasCityCodes":true,"hasInvalidVotes":true,"dataSource":"ckan-api-aggregated","notes":"נתוני ישובים מחושבים מסיכום קלפיות."},"19":{"hasPerCityData":true,"hasPerBallotBoxData":true,"hasEligibleVoters":true,"hasCityCodes":true,"hasInvalidVotes":true,"dataSource":"ckan-api"},"20":{"hasPerCityData":true,"hasPerBallotBoxData":true,"hasEligibleVoters":true,"hasCityCodes":true,"hasInvalidVotes":true,"dataSource":"ckan-api"},"21":{"hasPerCityData":true,"hasPerBallotBoxData":true,"hasEligibleVoters":true,"hasCityCodes":true,"hasInvalidVotes":true,"dataSource":"ckan-api"},"22":{"hasPerCityData":true,"hasPerBallotBoxData":true,"hasEligibleVoters":true,"hasCityCodes":true,"hasInvalidVotes":true,"dataSource":"ckan-api"},"23":{"hasPerCityData":true,"hasPerBallotBoxData":true,"hasEligibleVoters":true,"hasCityCodes":true,"hasInvalidVotes":true,"dataSource":"ckan-api"},"24":{"hasPerCityData":true,"hasPerBallotBoxData":true,"hasEligibleVoters":true,"hasCityCodes":true,"hasInvalidVotes":true,"dataSource":"ckan-api"},"25":{"hasPerCityData":true,"hasPerBallotBoxData":true,"hasEligibleVoters":true,"hasCityCodes":true,"hasInvalidVotes":true,"dataSource":"ckan-api"}}}